ONEWEB-0584             
1 54651U 22166K   23350.27915166  .00000056  00000+0  10482-3 0  9996
2 54651  87.9250  65.9057 0001625  91.8055 268.3265 13.21826429 51251
ONEWEB-0585             
1 54652U 22166L   23349.77450854  .00000066  00000+0  12858-3 0  9998
2 54652  87.9255  66.0105 0001681 116.2356 243.8950 13.21824741 50726
ONEWEB-0586             
1 54653U 22166M   23349.71142651  .00000079  00000+0  15984-3 0  9993
2 54653  87.9230  66.0513 0001622  98.2968 261.8350 13.21826665 50716
ONEWEB-0587             
1 54654U 22166N   23350.17508343  .00000104  00000+0  22049-3 0  9999
2 54654  87.9245  65.9153 0002040 113.5072 246.6277 13.21827245 51392
ONEWEB-0589             
1 54655U 22166P   23350.23816487  .00007826  00000+0  18912-1 0  9998
2 54655  87.9257  65.9252 0001429  76.0737 284.0555 13.21787569 51273
ONEWEB-0590             
1 54656U 22166Q   23350.26182270  .00000005  00000+0 -19069-4 0  9998
2 54656  87.9254  65.9224 0002168 105.0676 255.0698 13.21824279 51250
ONEWEB-0591             
1 54657U 22166R   23350.27441243  .00000045  00000+0  76882-4 0  9997
2 54657  87.9258  65.9218 0001732  96.7055 263.4276 13.21826591 51288
ONEWEB-0592             
1 54658U 22166S   23349.74769954  .00000011  00000+0 -51924-5 0  9995
2 54658  87.9246  66.0016 0001835  97.4798 262.6544 13.21823562 50632
